     2.100          NAVIGATION                              RINEX VERSION / TYPE
fic2rin                                 09/23/2010 00:03:34 PGM / RUN BY / DATE
                                                            END OF HEADER
12 10  9 22  4  0  0.0 -.706422142684D-04  .363797880709D-11  .000000000000D+00
     .280000000000D+02 -.162500000000D+01  .458554814934D-08 -.125697916307D+01
     .353902578354D-07  .331646320410D-02  .309199094772D-05  .515359843254D+04
     .273600000000D+06 -.128522515297D-06  .143767312079D+01 -.223517417908D-07
     .971759038579D+00  .326875000000D+03 -.327319297797D+00 -.830284584686D-08
     .142863093678D-10  .100000000000D+01  .160200000000D+04  .000000000000D+00
     .240000000000D+01  .000000000000D+00 -.116415321827D-07  .280000000000D+02
     .266406000000D+06  .400000000000D+01
13 10  9 22  4  0  0.0  .296828802675D-03 -.909494701773D-12  .000000000000D+00
     .110000000000D+02 -.526562500000D+02  .368943939425D-08  .119200690133D+01
    -.297278165817D-05  .432975078002D-02  .104177743196D-04  .515370713615D+04
     .273600000000D+06 -.335276126862D-07 -.594980865078D+00 -.800937414169D-07
     .992058669786D+00  .195000000000D+03  .180853620301D+01 -.759853079502D-08
    -.462519265784D-09  .100000000000D+01  .160200000000D+04  .000000000000D+00
     .240000000000D+01  .000000000000D+00 -.107102096081D-07  .110000000000D+02
     .266406000000D+06  .400000000000D+01
14 10  9 22  4  0  0.0  .909566879272D-04  .363797880709D-11  .000000000000D+00
     .550000000000D+02 -.639375000000D+02  .392337771014D-08  .113672442232D+01
    -.322610139847D-05  .565382791683D-02  .109300017357D-04  .515357746506D+04
     .273600000000D+06 -.931322574615D-07 -.617532575282D+00  .335276126862D-07
     .985226826263D+00  .185000000000D+03 -.212289704122D+01 -.780568228086D-08
    -.525379027002D-09  .100000000000D+01  .160200000000D+04  .000000000000D+00
     .240000000000D+01  .000000000000D+00 -.884756445885D-08  .550000000000D+02
     .266406000000D+06  .400000000000D+01
15 10  9 22  4  0  0.0 -.205858144909D-03  .522959453519D-11  .000000000000D+00
     .700000000000D+02 -.683750000000D+02  .473698302864D-08  .101250287826D+01
    -.349618494511D-05  .274072610773D-02  .976771116257D-05  .515382069206D+04
     .273600000000D+06  .372529029846D-07 -.685333352554D+00 -.335276126862D-07
     .952619548222D+00  .181562500000D+03 -.212685812452D+00 -.816891169653D-08
    -.596453416107D-09  .100000000000D+01  .160200000000D+04  .000000000000D+00
     .240000000000D+01  .000000000000D+00 -.977888703346D-08  .700000000000D+02
     .266406000000D+06  .400000000000D+01
16 10  9 22  4  0  0.0 -.110685825348D-03 -.341060513165D-11  .000000000000D+00
     .210000000000D+02  .218750000000D+01  .456554731623D-08  .270239184026D+01
     .856816768646D-07  .581328896806D-02  .295974314213D-05  .515365330124D+04
     .273600000000D+06 -.149011611938D-07  .145524920961D+01  .502914190292D-07
     .972908340669D+00  .330718750000D+03 -.161300378968D+00 -.824070040111D-08
    -.471448209139D-10  .100000000000D+01  .160200000000D+04  .000000000000D+00
     .240000000000D+01  .000000000000D+00 -.102445483208D-07  .210000000000D+02
     .266406000000D+06  .400000000000D+01
17 10  9 22  4  0  0.0  .171657186002D-03  .147792889038D-11  .000000000000D+00
     .130000000000D+02 -.635000000000D+02  .434160941689D-08  .166889164175D+01
    -.331178307533D-05  .559902621899D-02  .983476638794D-05  .515366573143D+04
     .273600000000D+06 -.108033418655D-06  .249864302800D+01  .633299350739D-07
     .960723191280D+00  .186062500000D+03 -.251069731644D+01 -.801961976364D-08
    -.325370695853D-09  .100000000000D+01  .160200000000D+04  .000000000000D+00
     .240000000000D+01  .000000000000D+00 -.102445483208D-07  .130000000000D+02
     .266406000000D+06  .400000000000D+01
18 10  9 22  4  0  0.0  .944789499044D-04  .216004991671D-11  .000000000000D+00
     .109000000000D+03 -.100000000000D+01  .560130474540D-08  .302973579554D+01
    -.152736902237D-06  .118582096184D-01  .262632966042D-05  .515372335815D+04
     .273600000000D+06 -.502914190292D-07 -.169512590882D+01 -.197440385818D-06
     .935494693555D+00  .315218750000D+03 -.229450204251D+01 -.860535844772D-08
    -.110718897601D-10  .100000000000D+01  .160200000000D+04  .000000000000D+00
     .340000000000D+01  .000000000000D+00 -.107102096081D-07  .109000000000D+03
     .266406000000D+06  .400000000000D+01
19 10  9 22  4  0  0.0 -.679101794958D-04 -.318323145621D-11  .000000000000D+00
     .100000000000D+03 -.645625000000D+02  .436839624695D-08  .819646648270D+00
    -.329688191414D-05  .667747098487D-02  .986084342003D-05  .515357530212D+04
     .273600000000D+06  .124797224998D-06  .255336140287D+01  .115483999252D-06
     .958361707955D+00  .188062500000D+03 -.614323613273D-01 -.799783314185D-08
    -.267153985179D-09  .100000000000D+01  .160200000000D+04  .000000000000D+00
     .340000000000D+01  .000000000000D+00 -.149011611938D-07  .100000000000D+03
     .266406000000D+06  .400000000000D+01
20 10  9 22  4  0  0.0  .508842058480D-04 -.454747350886D-12  .000000000000D+00
     .920000000000D+02  .609375000000D+01  .566952187263D-08 -.289698439894D+01
     .335276126862D-06  .414839747828D-02  .278651714325D-05  .515352999687D+04
     .273600000000D+06  .162050127983D-06 -.174911895282D+01 -.447034835815D-07
     .935483205259D+00  .311718750000D+03  .129830772087D+01 -.876536511264D-08
     .100718481043D-09  .100000000000D+01  .160200000000D+04  .000000000000D+00
     .340000000000D+01  .000000000000D+00 -.791624188423D-08  .920000000000D+02
     .266406000000D+06  .400000000000D+01
21 10  9 22  4  0  0.0 -.898740254343D-04 -.272848410532D-11  .000000000000D+00
     .850000000000D+02  .671875000000D+02  .500806574890D-08 -.209003390319D+01
     .309199094772D-05  .168544807239D-01  .990927219391D-05  .515363966370D+04
     .273600000000D+06  .219792127609D-06 -.275139396221D+01 -.150874257088D-06
     .932674314772D+00  .169937500000D+03 -.244436756913D+01 -.812462413749D-08
     .716101257063D-09  .100000000000D+01  .160200000000D+04  .000000000000D+00
     .240000000000D+01  .000000000000D+00 -.121071934700D-07  .850000000000D+02
     .266406000000D+06  .400000000000D+01
22 10  9 22  4  0  0.0  .162544194609D-03 -.682121026330D-12  .000000000000D+00
     .760000000000D+02  .562500000000D+00  .571880963995D-08  .212893682139D+01
    -.242143869400D-07  .559881178197D-02  .271573662758D-05  .515371390915D+04
     .273600000000D+06 -.372529029846D-08 -.169046301836D+01 -.102445483208D-06
     .933182509106D+00  .314125000000D+03 -.193405451277D+01 -.875000733007D-08
     .296440919383D-10  .100000000000D+01  .160200000000D+04  .000000000000D+00
     .485000000000D+01  .000000000000D+00 -.176951289177D-07  .760000000000D+02
     .266406000000D+06  .400000000000D+01
23 10  9 22  4  0  0.0  .352639704943D-03 -.181898940355D-11  .000000000000D+00
     .200000000000D+02 -.570312500000D+02  .435589572626D-08  .380361396767D+00
    -.315532088280D-05  .700942159165D-02  .937096774578D-05  .515364456940D+04
     .273600000000D+06  .521540641785D-07 -.658561100285D+00  .186264514923D-07
     .966959594960D+00  .199562500000D+03  .310368469670D+01 -.802426281418D-08
    -.515735768179D-09  .100000000000D+01  .160200000000D+04  .000000000000D+00
     .240000000000D+01  .000000000000D+00 -.200234353542D-07  .200000000000D+02
     .266406000000D+06  .400000000000D+01
25 10  9 22  4  0  0.0 -.423006713390D-04 -.147792889038D-11  .000000000000D+00
     .590000000000D+02  .465625000000D+01  .482412951579D-08  .224651771070D+01
     .352039933205D-06  .740613904782D-03  .281073153019D-05  .515376514244D+04
     .273600000000D+06 -.260770320892D-07  .141072578502D+01  .100582838058D-06
     .960479139971D+00  .324500000000D+03  .196723031588D+01 -.842642242289D-08
     .339299847486D-10  .100000000000D+01  .160200000000D+04  .100000000000D+01
     .240000000000D+01  .000000000000D+00  .465661287308D-08  .590000000000D+02
     .266406000000D+06  .400000000000D+01
27 10  9 22  4  0  0.0  .191252678633D-03  .352429196937D-11  .000000000000D+00
     .870000000000D+02  .565312500000D+02  .400766693541D-08  .122938072489D+01
     .236183404922D-05  .215775027173D-01  .109709799290D-04  .515358206940D+04
     .273600000000D+06  .372529029846D-07  .327897734142D+00 -.502914190292D-06
     .979630497520D+00  .179406250000D+03 -.137008727690D+01 -.789140013706D-08
     .230009580822D-09  .100000000000D+01  .160200000000D+04  .000000000000D+00
     .240000000000D+01  .000000000000D+00 -.419095158577D-08  .870000000000D+02
     .266406000000D+06  .400000000000D+01
28 10  9 22  4  0  0.0 -.264076516032D-05  .147792889038D-11  .000000000000D+00
     .450000000000D+02 -.712500000000D+01  .446911472800D-08  .227170855876D+01
    -.597909092903D-06  .161967355525D-01  .293739140034D-05  .515367566109D+04
     .273600000000D+06  .143423676491D-06  .146281281646D+01 -.286847352982D-06
     .971164694462D+00  .326156250000D+03 -.194603699973D+01 -.806176437627D-08
    -.157149403046D-10  .100000000000D+01  .160200000000D+04  .000000000000D+00
     .240000000000D+01  .000000000000D+00 -.107102096081D-07  .450000000000D+02
     .266406000000D+06  .400000000000D+01
29 10  9 22  4  0  0.0  .151070766151D-03  .261479726760D-11  .000000000000D+00
     .500000000000D+02 -.733125000000D+02  .428017828661D-08 -.196633838497D+01
    -.367686152458D-05  .264788337518D-02  .105071812868D-04  .515367207718D+04
     .273600000000D+06  .316649675369D-07  .250694660368D+01  .558793544769D-07
     .961100391541D+00  .174656250000D+03 -.125040296741D+01 -.797033199632D-08
    -.309655755548D-09  .100000000000D+01  .160200000000D+04  .000000000000D+00
     .240000000000D+01  .000000000000D+00 -.884756445885D-08  .500000000000D+02
     .266406000000D+06  .400000000000D+01
